******** Week 98 almanac for PRN-19 ********
ID:                         19
Health:                     000
Eccentricity:               0.9048938751E-002
Time of Applicability(s):  503808.0000
Orbital Inclination(rad):   0.9814864481
Rate of Right Ascen(r/s):  -0.7543171346E-008
SQRT(A)  (m 1/2):           5153.584473
Right Ascen at Week(rad):  -0.2762921856E+001
Argument of Perigee(rad):   1.786167829
Mean Anom(rad):            -0.2729050692E+001
Af0(s):                    -0.3337860107E-004
Af1(s/s):                   0.3637978807E-011
week:                        98

******** Week 98 almanac for PRN-20 ********
ID:                         20
Health:                     000
Eccentricity:               0.5844593048E-002
Time of Applicability(s):  503808.0000
Orbital Inclination(rad):   0.9370309659
Rate of Right Ascen(r/s):  -0.8480353241E-008
SQRT(A)  (m 1/2):           5153.617676
Right Ascen at Week(rad):  -0.9155176343E+000
Argument of Perigee(rad):   2.866313509
Mean Anom(rad):            -0.1735445720E+001
Af0(s):                     0.5245208740E-003
Af1(s/s):                   0.0000000000E+000
week:                        98

******** Week 98 almanac for PRN-21 ********
ID:                         21
Health:                     000
Eccentricity:               0.2429485321E-001
Time of Applicability(s):  503808.0000
Orbital Inclination(rad):   0.9560199702
Rate of Right Ascen(r/s):  -0.8263201338E-008
SQRT(A)  (m 1/2):           5153.661133
Right Ascen at Week(rad):  -0.1892897463E+001
Argument of Perigee(rad):  -1.183381539
Mean Anom(rad):             0.1270723319E+001
Af0(s):                     0.9918212891E-004
Af1(s/s):                   0.3637978807E-011
week:                        98

******** Week 98 almanac for PRN-22 ********
ID:                         22
Health:                     000
Eccentricity:               0.7003784180E-002
Time of Applicability(s):  503808.0000
Orbital Inclination(rad):   0.9337592725
Rate of Right Ascen(r/s):  -0.8480353241E-008
SQRT(A)  (m 1/2):           5153.537598
Right Ascen at Week(rad):  -0.8689600441E+000
Argument of Perigee(rad):  -1.028930721
Mean Anom(rad):             0.6084540787E-001
Af0(s):                    -0.6713867188E-003
Af1(s/s):                   0.7275957614E-011
week:                        98

******** Week 98 almanac for PRN-23 ********
ID:                         23
Health:                     000
Eccentricity:               0.1058101654E-002
Time of Applicability(s):  503808.0000
Orbital Inclination(rad):   0.9632404657
Rate of Right Ascen(r/s):  -0.8148910863E-008
SQRT(A)  (m 1/2):           5153.596191
Right Ascen at Week(rad):  -0.7985864284E+000
Argument of Perigee(rad):   2.461391642
Mean Anom(rad):            -0.1433069495E+001
Af0(s):                     0.1182556152E-003
Af1(s/s):                   0.0000000000E+000
week:                        98

******** Week 98 almanac for PRN-24 ********
ID:                         24
Health:                     000
Eccentricity:               0.1093149185E-001
Time of Applicability(s):  503808.0000
Orbital Inclination(rad):   0.9350955135
Rate of Right Ascen(r/s):  -0.8366062766E-008
SQRT(A)  (m 1/2):           5153.545410
Right Ascen at Week(rad):   0.1253049209E+001
Argument of Perigee(rad):   0.732047765
Mean Anom(rad):            -0.7682210240E+000
Af0(s):                     0.1907348633E-005
Af1(s/s):                   0.0000000000E+000
week:                        98

******** Week 98 almanac for PRN-25 ********
ID:                         25
Health:                     000
Eccentricity:               0.9866237640E-002
Time of Applicability(s):  503808.0000
Orbital Inclination(rad):   0.9618922404
Rate of Right Ascen(r/s):  -0.8000333246E-008
SQRT(A)  (m 1/2):           5153.604980
Right Ascen at Week(rad):   0.2367590365E+001
Argument of Perigee(rad):   0.946272151
Mean Anom(rad):            -0.2769614671E+001
Af0(s):                     0.8869171143E-004
Af1(s/s):                   0.7275957614E-011
week:                        98

******** Week 98 almanac for PRN-26 ********
ID:                         26
Health:                     000
Eccentricity:               0.5756855011E-002
Time of Applicability(s):  503808.0000
Orbital Inclination(rad):   0.9428193465
Rate of Right Ascen(r/s):  -0.8171768958E-008
SQRT(A)  (m 1/2):           5153.698730
Right Ascen at Week(rad):   0.2327183303E+001
Argument of Perigee(rad):   0.283654245
Mean Anom(rad):             0.2870128613E+001
Af0(s):                     0.5054473877E-004
Af1(s/s):                   0.3637978807E-011
week:                        98

******** Week 98 almanac for PRN-27 ********
ID:                         27
Health:                     000
Eccentricity:               0.9140968323E-002
Time of Applicability(s):  503808.0000
Orbital Inclination(rad):   0.9769444269
Rate of Right Ascen(r/s):  -0.7554600394E-008
SQRT(A)  (m 1/2):           5153.640137
Right Ascen at Week(rad):  -0.2868251958E+001
Argument of Perigee(rad):   0.579449258
Mean Anom(rad):             0.1066764919E+001
Af0(s):                    -0.8392333984E-004
Af1(s/s):                  -0.7275957614E-011
week:                        98

******** Week 98 almanac for PRN-28 ********
ID:                         28
Health:                     000
Eccentricity:               0.1784801483E-001
Time of Applicability(s):  503808.0000
Orbital Inclination(rad):   0.9738285284
Rate of Right Ascen(r/s):  -0.7783181344E-008
SQRT(A)  (m 1/2):           5153.615234
Right Ascen at Week(rad):   0.2462319670E+001
Argument of Perigee(rad):  -1.349770518
Mean Anom(rad):             0.1798617940E+001
Af0(s):                     0.6103515625E-003
Af1(s/s):                  -0.3637978807E-011
week:                        98

******** Week 98 almanac for PRN-29 ********
ID:                         29
Health:                     000
Eccentricity:               0.1547336578E-002
Time of Applicability(s):  503808.0000
Orbital Inclination(rad):   0.9848600075
Rate of Right Ascen(r/s):  -0.7486026109E-008
SQRT(A)  (m 1/2):           5153.642578
Right Ascen at Week(rad):  -0.2795880347E+001
Argument of Perigee(rad):   2.134854095
Mean Anom(rad):             0.1199596196E+001
Af0(s):                    -0.3023147583E-003
Af1(s/s):                  -0.7275957614E-011
week:                        98

******** Week 98 almanac for PRN-30 ********
ID:                         30
Health:                     000
Eccentricity:               0.4886150360E-002
Time of Applicability(s):  503808.0000
Orbital Inclination(rad):   0.9368991394
Rate of Right Ascen(r/s):  -0.8354633718E-008
SQRT(A)  (m 1/2):           5153.672363
Right Ascen at Week(rad):   0.1348391208E+001
Argument of Perigee(rad):  -2.841214797
Mean Anom(rad):            -0.1805760164E+001
Af0(s):                    -0.3910064697E-003
Af1(s/s):                  -0.7275957614E-011
week:                        98

******** Week 98 almanac for PRN-31 ********
ID:                         31
Health:                     000
Eccentricity:               0.9970188141E-002
Time of Applicability(s):  503808.0000
Orbital Inclination(rad):   0.9560019939
Rate of Right Ascen(r/s):  -0.8137481816E-008
SQRT(A)  (m 1/2):           5153.680664
Right Ascen at Week(rad):   0.1346568483E+001
Argument of Perigee(rad):   0.249131438
Mean Anom(rad):            -0.2233922065E+001
Af0(s):                    -0.1020431519E-003
Af1(s/s):                  -0.3637978807E-011
week:                        98

******** Week 98 almanac for PRN-32 ********
ID:                         32
Health:                     000
Eccentricity:               0.4630565643E-002
Time of Applicability(s):  503808.0000
Orbital Inclination(rad):   0.9576737933
Rate of Right Ascen(r/s):  -0.7691748964E-008
SQRT(A)  (m 1/2):           5153.600586
Right Ascen at Week(rad):   0.2667512446E+000
Argument of Perigee(rad):  -2.427191286
Mean Anom(rad):             0.1810145267E+001
Af0(s):                     0.2002716064E-004
Af1(s/s):                   0.0000000000E+000
week:                        98

